{"type": "FeatureCollection", "features": [ {"type": "Feature", "properties": {"norad_id": 34409, "name": "COSMOS 2251 DEB", "group": "cosmos-2251-debris", "lat": 73.86781568338753, "lon": 4.0057692283860336, "alt_km": 695.0850392858401, "timestamp": "2025-12-25T07:41:10.117570+00:00", "meta": {"OBJECT_NAME": "COSMOS 2251 DEB", "OBJECT_ID": "1993-036RA", "EPOCH": "2025-12-24T21:42:50.607360", "MEAN_MOTION": 14.58056072, "ECCENTRICITY": 0.00803897, "INCLINATION": 74.0637, "RA_OF_ASC_NODE": 283.7332, "ARG_OF_PERICENTER": 354.9002, "MEAN_ANOMALY": 71.6273, "EPHEMERIS_TYPE": 0, "CLASSIFICATION_TYPE": "U", "NORAD_CAT_ID": 34409, "ELEMENT_SET_NO": 999, "REV_AT_EPOCH": 89370, "BSTAR": 0.00025380682, "MEAN_MOTION_DOT": 1.189e-05, "MEAN_MOTION_DDOT": 0}, "tle": {"line1": "1 34409U 93036RA  25358.90475240  .00001189  00000+0  25381-3 0  9995", "line2": "2 34409  74.0637 283.7332 0080389 354.9002  71.6273 14.58056072893709"}}, "geometry": {"type": "Point", "coordinates": [4.0057692283860336, 73.86781568338753]}}, {"type": "Feature", "properties": {"norad_id": 34410, "name": "COSMOS 2251 DEB", "group": "cosmos-2251-debris", "lat": 25.13434755492381, "lon": -117.21693059398216, "alt_km": 494.7387586822406, "timestamp": "2025-12-25T07:41:10.117581+00:00", "meta": {"OBJECT_NAME": "COSMOS 2251 DEB", "OBJECT_ID": "1993-036RB", "EPOCH": "2025-12-24T15:54:46.238688", "MEAN_MOTION": 15.20004052, "ECCENTRICITY": 0.00211644, "INCLINATION": 73.7357, "RA_OF_ASC_NODE": 236.3127, "ARG_OF_PERICENTER": 75.5551, "MEAN_ANOMALY": 316.1115, "EPHEMERIS_TYPE": 0, "CLASSIFICATION_TYPE": "U", "NORAD_CAT_ID": 34410, "ELEMENT_SET_NO": 999, "REV_AT_EPOCH": 89955, "BSTAR": 0.0023683134, "MEAN_MOTION_DOT": 0.00051663, "MEAN_MOTION_DDOT": 0}, "tle": {"line1": "1 34410U 93036RB  25358.66303517  .00051663  00000+0  23683-2 0  9991", "line2": "2 34410  73.7357 236.3127 0021164  75.5551 316.1115 15.20004052899555"}}, "geometry": {"type": "Point", "coordinates": [-117.21693059398216, 25.13434755492381]}}, {"type": "Feature", "properties": {"norad_id": 34412, "name": "COSMOS 2251 DEB", "group": "cosmos-2251-debris", "lat": 11.511815933663215, "lon": 117.58770004239219, "alt_km": 828.2494810939452, "timestamp": "2025-12-25T07:41:10.117591+00:00", "meta": {"OBJECT_NAME": "COSMOS 2251 DEB", "OBJECT_ID": "1993-036RD", "EPOCH": "2025-12-24T06:02:29.414112", "MEAN_MOTION": 14.47276709, "ECCENTRICITY": 0.01876387, "INCLINATION": 73.949, "RA_OF_ASC_NODE": 302.9581, "ARG_OF_PERICENTER": 35.3619, "MEAN_ANOMALY": 325.9814, "EPHEMERIS_TYPE": 0, "CLASSIFICATION_TYPE": "U", "NORAD_CAT_ID": 34412, "ELEMENT_SET_NO": 999, "REV_AT_EPOCH": 87817, "BSTAR": 0.0018649119, "MEAN_MOTION_DOT": 8.49e-05, "MEAN_MOTION_DDOT": 0}, "tle": {"line1": "1 34412U 93036RD  25358.25172933  .00008490  00000+0  18649-2 0  9990", "line2": "2 34412  73.9490 302.9581 0187638  35.3619 325.9814 14.47276709878176"}}, "geometry": {"type": "Point", "coordinates": [117.58770004239219, 11.511815933663215]}}, {"type": "Feature", "properties": {"norad_id": 34413, "name": "COSMOS 2251 DEB", "group": "cosmos-2251-debris", "lat": -19.080933833674962, "lon": 67.71335383657794, "alt_km": 827.7094357741971, "timestamp": "2025-12-25T07:41:10.117615+00:00", "meta": {"OBJECT_NAME": "COSMOS 2251 DEB", "OBJECT_ID": "1993-036RE", "EPOCH": "2025-12-24T22:25:10.364736", "MEAN_MOTION": 14.291856, "ECCENTRICITY": 0.00909509, "INCLINATION": 74.0301, "RA_OF_ASC_NODE": 242.7297, "ARG_OF_PERICENTER": 316.973, "MEAN_ANOMALY": 57.9695, "EPHEMERIS_TYPE": 0, "CLASSIFICATION_TYPE": "U", "NORAD_CAT_ID": 34413, "ELEMENT_SET_NO": 999, "REV_AT_EPOCH": 87305, "BSTAR": 0.0013959189, "MEAN_MOTION_DOT": 3.681e-05, "MEAN_MOTION_DDOT": 0}, "tle": {"line1": "1 34413U 93036RE  25358.93414774  .00003681  00000+0  13959-2 0  9994", "line2": "2 34413  74.0301 242.7297 0090950 316.9730  57.9695 14.29185600873057"}}, "geometry": {"type": "Point", "coordinates": [67.71335383657794, -19.080933833674962]}}, {"type": "Feature", "properties": {"norad_id": 34420, "name": "COSMOS 2251 DEB", "group": "cosmos-2251-debris", "lat": -73.77135891515697, "lon": -20.752864460290244, "alt_km": 646.297557523666, "timestamp": "2025-12-25T07:41:10.117626+00:00", "meta": {"OBJECT_NAME": "COSMOS 2251 DEB", "OBJECT_ID": "1993-036RM", "EPOCH": "2025-12-24T16:20:11.617728", "MEAN_MOTION": 14.6833122, "ECCENTRICITY": 0.01060804, "INCLINATION": 74.0333, "RA_OF_ASC_NODE": 80.862, "ARG_OF_PERICENTER": 199.1634, "MEAN_ANOMALY": 287.468, "EPHEMERIS_TYPE": 0, "CLASSIFICATION_TYPE": "U", "NORAD_CAT_ID": 34420, "ELEMENT_SET_NO": 999, "REV_AT_EPOCH": 89945, "BSTAR": 0.00021349981, "MEAN_MOTION_DOT": 1.307e-05, "MEAN_MOTION_DDOT": 0}, "tle": {"line1": "1 34420U 93036RM  25358.68069002  .00001307  00000+0  21350-3 0  9992", "line2": "2 34420  74.0333  80.8620 0106080 199.1634 287.4680 14.68331220899457"}}, "geometry": {"type": "Point", "coordinates": [-20.752864460290244, -73.77135891515697]}}, {"type": "Feature", "properties": {"norad_id": 34425, "name": "COSMOS 2251 DEB", "group": "cosmos-2251-debris", "lat": 67.97688054517108, "lon": 75.51297539771154, "alt_km": 675.7225501342627, "timestamp": "2025-12-25T07:41:10.117636+00:00", "meta": {"OBJECT_NAME": "COSMOS 2251 DEB", "OBJECT_ID": "1993-036RS", "EPOCH": "2025-12-24T19:51:03.631104", "MEAN_MOTION": 14.62189926, "ECCENTRICITY": 0.00241478, "INCLINATION": 74.0191, "RA_OF_ASC_NODE": 31.347, "ARG_OF_PERICENTER": 154.3448, "MEAN_ANOMALY": 205.8923, "EPHEMERIS_TYPE": 0, "CLASSIFICATION_TYPE": "U", "NORAD_CAT_ID": 34425, "ELEMENT_SET_NO": 999, "REV_AT_EPOCH": 88917, "BSTAR": 0.00051059994, "MEAN_MOTION_DOT": 2.552e-05, "MEAN_MOTION_DDOT": 0}, "tle": {"line1": "1 34425U 93036RS  25358.82712536  .00002552  00000+0  51060-3 0  9994", "line2": "2 34425  74.0191  31.3470 0024147 154.3448 205.8923 14.62189926889177"}}, "geometry": {"type": "Point", "coordinates": [75.51297539771154, 67.97688054517108]}}, {"type": "Feature", "properties": {"norad_id": 34429, "name": "COSMOS 2251 DEB", "group": "cosmos-2251-debris", "lat": -59.407392636603504, "lon": -10.357416994466092, "alt_km": 433.10110387860914, "timestamp": "2025-12-25T07:41:10.117646+00:00", "meta": {"OBJECT_NAME": "COSMOS 2251 DEB", "OBJECT_ID": "1993-036RW", "EPOCH": "2025-12-24T12:17:46.121568", "MEAN_MOTION": 15.4672174, "ECCENTRICITY": 0.001324, "INCLINATION": 73.969, "RA_OF_ASC_NODE": 142.313, "ARG_OF_PERICENTER": 345.0804, "MEAN_ANOMALY": 81.2435, "EPHEMERIS_TYPE": 0, "CLASSIFICATION_TYPE": "U", "NORAD_CAT_ID": 34429, "ELEMENT_SET_NO": 999, "REV_AT_EPOCH": 89630, "BSTAR": 0.0059919728, "MEAN_MOTION_DOT": 0.00312947, "MEAN_MOTION_DDOT": 0}, "tle": {"line1": "1 34429U 93036RW  25358.51233937  .00312947  00000+0  59920-2 0  9991", "line2": "2 34429  73.9690 142.3130 0013240 345.0804  81.2435 15.46721740896302"}}, "geometry": {"type": "Point", "coordinates": [-10.357416994466092, -59.407392636603504]}}, {"type": "Feature", "properties": {"norad_id": 34430, "name": "COSMOS 2251 DEB", "group": "cosmos-2251-debris", "lat": -72.54433964597979, "lon": -145.26839547886277, "alt_km": 751.2254928013581, "timestamp": "2025-12-25T07:41:10.117656+00:00", "meta": {"OBJECT_NAME": "COSMOS 2251 DEB", "OBJECT_ID": "1993-036RX", "EPOCH": "2025-12-24T22:03:36.961920", "MEAN_MOTION": 14.3966779, "ECCENTRICITY": 0.00608937, "INCLINATION": 74.0519, "RA_OF_ASC_NODE": 280.8902, "ARG_OF_PERICENTER": 347.715, "MEAN_ANOMALY": 12.2516, "EPHEMERIS_TYPE": 0, "CLASSIFICATION_TYPE": "U", "NORAD_CAT_ID": 34430, "ELEMENT_SET_NO": 999, "REV_AT_EPOCH": 88130, "BSTAR": 0.0004526126, "MEAN_MOTION_DOT": 1.42e-05, "MEAN_MOTION_DDOT": 0}, "tle": {"line1": "1 34430U 93036RX  25358.91917780  .00001420  00000+0  45261-3 0  9997", "line2": "2 34430  74.0519 280.8902 0060893 347.7150  12.2516 14.39667790881303"}}, "geometry": {"type": "Point", "coordinates": [-145.26839547886277, -72.54433964597979]}}, {"type": "Feature", "properties": {"norad_id": 34431, "name": "COSMOS 2251 DEB", "group": "cosmos-2251-debris", "lat": 45.18173903173408, "lon": 169.1265509828084, "alt_km": 788.7209525335375, "timestamp": "2025-12-25T07:41:10.117666+00:00", "meta": {"OBJECT_NAME": "COSMOS 2251 DEB", "OBJECT_ID": "1993-036RY", "EPOCH": "2025-12-24T19:42:02.444832", "MEAN_MOTION": 14.28814588, "ECCENTRICITY": 0.00677003, "INCLINATION": 74.074, "RA_OF_ASC_NODE": 153.331, "ARG_OF_PERICENTER": 135.8066, "MEAN_ANOMALY": 224.852, "EPHEMERIS_TYPE": 0, "CLASSIFICATION_TYPE": "U", "NORAD_CAT_ID": 34431, "ELEMENT_SET_NO": 999, "REV_AT_EPOCH": 87315, "BSTAR": 0.00067957394, "MEAN_MOTION_DOT": 1.731e-05, "MEAN_MOTION_DDOT": 0}, "tle": {"line1": "1 34431U 93036RY  25358.82086163  .00001731  00000+0  67957-3 0  9991", "line2": "2 34431  74.0740 153.3310 0067700 135.8066 224.8520 14.28814588873150"}}, "geometry": {"type": "Point", "coordinates": [169.1265509828084, 45.18173903173408]}}, {"type": "Feature", "properties": {"norad_id": 34432, "name": "COSMOS 2251 DEB", "group": "cosmos-2251-debris", "lat": -33.366060938266614, "lon": 69.14421056211108, "alt_km": 1016.0003532854244, "timestamp": "2025-12-25T07:41:10.117676+00:00", "meta": {"OBJECT_NAME": "COSMOS 2251 DEB", "OBJECT_ID": "1993-036RZ", "EPOCH": "2025-12-24T17:13:53.408064", "MEAN_MOTION": 14.02954717, "ECCENTRICITY": 0.01814081, "INCLINATION": 73.8286, "RA_OF_ASC_NODE": 81.221, "ARG_OF_PERICENTER": 162.0156, "MEAN_ANOMALY": 1.8604, "EPHEMERIS_TYPE": 0, "CLASSIFICATION_TYPE": "U", "NORAD_CAT_ID": 34432, "ELEMENT_SET_NO": 999, "REV_AT_EPOCH": 85852, "BSTAR": 0.001092472, "MEAN_MOTION_DOT": 1.935e-05, "MEAN_MOTION_DDOT": 0}, "tle": {"line1": "1 34432U 93036RZ  25358.71797926  .00001935  00000+0  10925-2 0  9994", "line2": "2 34432  73.8286  81.2210 0181408 162.0156   1.8604 14.02954717858526"}}, "geometry": {"type": "Point", "coordinates": [69.14421056211108, -33.366060938266614]}}]}